0 COSMOS 1823 DEB
1 27742U 87020DV  13282.87963446  .00030005  00000-0  32329-1 0  1116
2 27742 074.1342 227.2583 0137423 117.7751 243.7378 13.69175206706976
0 COSMOS 1823 DEB
1 27742U 87020DV  13283.97558602  .00030266  00000-0  32544-1 0  1121
2 27742 074.1338 225.4675 0138541 115.5011 246.0510 13.69229006707120
0 COSMOS 1823 DEB
1 27742U 87020DV  13285.50983914  .00027735  00000-0  29737-1 0  1138
2 27742 074.1347 222.9587 0140353 112.1359 249.4724 13.69315696707334
0 COSMOS 1823 DEB
1 27742U 87020DV  13286.82482921  .00030411  00000-0  32536-1 0  1143
2 27742 074.1345 220.8135 0140870 109.8147 251.8220 13.69389121707512
0 COSMOS 1823 DEB
1 27742U 87020DV  13288.21279446  .00040340  00000-0  42967-1 0  1156
2 27742 074.1339 218.5443 0142328 106.9217 254.7560 13.69485487707709
0 COSMOS 1823 DEB
1 27742U 87020DV  13290.47716879  .00039205  00000-0  41487-1 0  1168
2 27742 074.1310 214.8389 0146391 102.0090 259.7478 13.69635511708019
0 COSMOS 1823 DEB
1 27742U 87020DV  13291.49969355  .00036032  00000-0  38120-1 0  1176
2 27742 074.1340 213.1686 0145904 100.5929 261.1660 13.69704069708157
0 COSMOS 1823 DEB
1 27742U 87020DV  13292.81430152  .00037075  00000-0  39075-1 0  1180
2 27742 074.1322 211.0171 0147824 098.1631 263.6284 13.69801416708331
0 COSMOS 1823 DEB
1 27742U 87020DV  13294.49394299  .00042341  00000-0  44430-1 0  1191
2 27742 074.1331 208.2694 0149459 094.9437 266.8762 13.69916723708562
0 COSMOS 1823 DEB
1 27742U 87020DV  13295.80834130  .00043947  00000-0  45936-1 0  1207
2 27742 074.1348 206.1210 0151273 092.4125 269.4321 13.70020049708744
